EUTELSAT 9B             
1 41310U 16005A   26064.12058863  .00000053  00000+0  00000+0 0  9998
2 41310   0.0275  61.7858 0004252 258.8905 254.5999  1.00275036 37074
EUTELSAT 65 WEST A      
1 41382U 16014A   26064.28505737 -.00000285  00000+0  00000+0 0  9999
2 41382   0.0726  42.7083 0002215 299.0991 218.6378  1.00272078 36492
EUTELSAT 117 WEST B     
1 41589U 16038B   26063.36225455 -.00000023  00000+0  00000+0 0  9998
2 41589   0.0384 342.0206 0000210 243.2130 310.2920  1.00271881 35619
EUTELSAT 172B           
1 42741U 17029B   26064.26070394 -.00000014  00000+0  00000+0 0  9990
2 42741   0.0204 152.1223 0000081 160.7330 115.9727  1.00272410 32690
EUTELSAT 7C             
1 44334U 19034B   26064.12058863  .00000039  00000+0  00000+0 0  9996
2 44334   0.0718 178.1433 0003280 153.1021 241.9864  1.00270612  5793
EUTELSAT 5 WEST B       
1 44624U 19067A   26064.22569044 -.00000051  00000+0  00000+0 0  9998
2 44624   0.0933 311.2659 0003206  42.6829 245.2296  1.00272817 23391
EUTELSAT KONNECT        
1 45027U 20005B   26064.12058863  .00000040  00000+0  00000+0 0  9998
2 45027   0.0703  97.3635 0001022 228.3820 247.7044  1.00271518 23292
EUTELSAT QUANTUM        
1 49056U 21069B   26064.18169615  .00000117  00000+0  00000+0 0  9994
2 49056   0.0448 314.2780 0002896  26.4202 295.3186  1.00272663 16882
EUTELSAT KONNECT VHTS   
1 53765U 22110A   26064.22716378  .00000008  00000+0  00000+0 0  9992
2 53765   0.0592 102.7732 0002968 213.1636 291.4865  1.00270447  5794
EUTELSAT HOTBIRD 13F    
1 54048U 22134A   26064.22924380  .00000078  00000+0  00000+0 0  9994
2 54048   0.0571 296.5070 0002057  63.0829 258.8856  1.00272104 12335
EUTELSAT HOTBIRD 13G    
1 54225U 22146A   26064.22924380  .00000078  00000+0  00000+0 0  9994
2 54225   0.0451 227.7099 0001900 313.0529  77.7197  1.00272239  6425
EUTELSAT 10B            
1 54259U 22157A   26064.22863713  .00000059  00000+0  00000+0 0  9994
2 54259   0.0587 101.9857 0001356  13.6251 139.6075  1.00268373 11981
EUTELSAT 36D            
1 59346U 24059A   26063.79836745  .00000146  00000+0  00000+0 0  9992
2 59346   0.0059 149.0207 0000246 199.3380 137.4371  1.00271241  7103
